CCSDS_OMM_VERS = 2.0
CREATION_DATE  = 
ORIGINATOR     = 

OBJECT_NAME    = STARLINK-36461
OBJECT_ID      = 2026-002M
CENTER_NAME    = EARTH
REF_FRAME      = TEME
TIME_SYSTEM    = UTC
MEAN_ELEMENT_THEORY = SGP/SGP4

EPOCH          = 2026-01-11T14:00:01.999872
MEAN_MOTION    = 15.98122743
ECCENTRICITY   = .00018067
INCLINATION    = 42.9992
RA_OF_ASC_NODE = 297.0867
ARG_OF_PERICENTER = 263.6506
MEAN_ANOMALY   = 295.3924

EPHEMERIS_TYPE = 0
CLASSIFICATION_TYPE = U
NORAD_CAT_ID   = 67316
ELEMENT_SET_NO = 999
REV_AT_EPOCH   = 239
BSTAR          = -.26307695E-2
MEAN_MOTION_DOT = -.1258121E-1
MEAN_MOTION_DDOT = .48893E-3

CCSDS_OMM_VERS = 2.0
CREATION_DATE  = 
ORIGINATOR     = 

OBJECT_NAME    = STARLINK-36450
OBJECT_ID      = 2026-002N
CENTER_NAME    = EARTH
REF_FRAME      = TEME
TIME_SYSTEM    = UTC
MEAN_ELEMENT_THEORY = SGP/SGP4

EPOCH          = 2026-01-11T14:00:01.999872
MEAN_MOTION    = 15.98196906
ECCENTRICITY   = .000192
INCLINATION    = 42.9993
RA_OF_ASC_NODE = 297.0825
ARG_OF_PERICENTER = 258.1292
MEAN_ANOMALY   = 302.5798

EPHEMERIS_TYPE = 0
CLASSIFICATION_TYPE = U
NORAD_CAT_ID   = 67317
ELEMENT_SET_NO = 999
REV_AT_EPOCH   = 239
BSTAR          = -.26210636E-2
MEAN_MOTION_DOT = -.1258726E-1
MEAN_MOTION_DDOT = .48974092E-3

CCSDS_OMM_VERS = 2.0
CREATION_DATE  = 
ORIGINATOR     = 

OBJECT_NAME    = STARLINK-36498
OBJECT_ID      = 2026-002P
CENTER_NAME    = EARTH
REF_FRAME      = TEME
TIME_SYSTEM    = UTC
MEAN_ELEMENT_THEORY = SGP/SGP4

EPOCH          = 2026-01-11T14:00:01.999872
MEAN_MOTION    = 15.98366942
ECCENTRICITY   = .00019046
INCLINATION    = 42.9991
RA_OF_ASC_NODE = 297.0734
ARG_OF_PERICENTER = 262.9520
MEAN_ANOMALY   = 301.3142

EPHEMERIS_TYPE = 0
CLASSIFICATION_TYPE = U
NORAD_CAT_ID   = 67318
ELEMENT_SET_NO = 999
REV_AT_EPOCH   = 229
BSTAR          = -.26123137E-2
MEAN_MOTION_DOT = -.1266467E-1
MEAN_MOTION_DDOT = .49614752E-3

CCSDS_OMM_VERS = 2.0
CREATION_DATE  = 
ORIGINATOR     = 

OBJECT_NAME    = STARLINK-36470
OBJECT_ID      = 2026-002Q
CENTER_NAME    = EARTH
REF_FRAME      = TEME
TIME_SYSTEM    = UTC
MEAN_ELEMENT_THEORY = SGP/SGP4

EPOCH          = 2026-01-11T14:00:01.999872
MEAN_MOTION    = 15.98280801
ECCENTRICITY   = .00018929
INCLINATION    = 42.9993
RA_OF_ASC_NODE = 297.0779
ARG_OF_PERICENTER = 259.7044
MEAN_ANOMALY   = 302.7861

EPHEMERIS_TYPE = 0
CLASSIFICATION_TYPE = U
NORAD_CAT_ID   = 67319
ELEMENT_SET_NO = 999
REV_AT_EPOCH   = 229
BSTAR          = -.26148116E-2
MEAN_MOTION_DOT = -.126161E-1
MEAN_MOTION_DDOT = .49222772E-3

CCSDS_OMM_VERS = 2.0
CREATION_DATE  = 
ORIGINATOR     = 

OBJECT_NAME    = STARLINK-36500
OBJECT_ID      = 2026-002R
CENTER_NAME    = EARTH
REF_FRAME      = TEME
TIME_SYSTEM    = UTC
MEAN_ELEMENT_THEORY = SGP/SGP4

EPOCH          = 2026-01-11T14:00:01.999872
MEAN_MOTION    = 15.98448088
ECCENTRICITY   = .00018178
INCLINATION    = 42.9994
RA_OF_ASC_NODE = 297.0695
ARG_OF_PERICENTER = 262.5375
MEAN_ANOMALY   = 303.4570

EPHEMERIS_TYPE = 0
CLASSIFICATION_TYPE = U
NORAD_CAT_ID   = 67320
ELEMENT_SET_NO = 999
REV_AT_EPOCH   = 229
BSTAR          = -.26171622E-2
MEAN_MOTION_DOT = -.1274505E-1
MEAN_MOTION_DDOT = .50235225E-3

CCSDS_OMM_VERS = 2.0
CREATION_DATE  = 
ORIGINATOR     = 

OBJECT_NAME    = STARLINK-36462
OBJECT_ID      = 2026-002S
CENTER_NAME    = EARTH
REF_FRAME      = TEME
TIME_SYSTEM    = UTC
MEAN_ELEMENT_THEORY = SGP/SGP4

EPOCH          = 2026-01-11T14:00:01.999872
MEAN_MOTION    = 15.98630007
ECCENTRICITY   = .00018955
INCLINATION    = 42.9993
RA_OF_ASC_NODE = 297.0601
ARG_OF_PERICENTER = 258.3398
MEAN_ANOMALY   = 311.3152

EPHEMERIS_TYPE = 0
CLASSIFICATION_TYPE = U
NORAD_CAT_ID   = 67321
ELEMENT_SET_NO = 999
REV_AT_EPOCH   = 223
BSTAR          = -.26222632E-2
MEAN_MOTION_DOT = -.1289985E-1
MEAN_MOTION_DDOT = .51455812E-3

CCSDS_OMM_VERS = 2.0
CREATION_DATE  = 
ORIGINATOR     = 

OBJECT_NAME    = STARLINK-36434
OBJECT_ID      = 2026-002T
CENTER_NAME    = EARTH
REF_FRAME      = TEME
TIME_SYSTEM    = UTC
MEAN_ELEMENT_THEORY = SGP/SGP4

EPOCH          = 2026-01-11T14:00:01.999872
MEAN_MOTION    = 15.98564892
ECCENTRICITY   = .00018456
INCLINATION    = 42.9994
RA_OF_ASC_NODE = 297.0632
ARG_OF_PERICENTER = 262.3500
MEAN_ANOMALY   = 306.0289

EPHEMERIS_TYPE = 0
CLASSIFICATION_TYPE = U
NORAD_CAT_ID   = 67322
ELEMENT_SET_NO = 999
REV_AT_EPOCH   = 223
BSTAR          = -.26008771E-2
MEAN_MOTION_DOT = -.1274936E-1
MEAN_MOTION_DDOT = .50328076E-3

CCSDS_OMM_VERS = 2.0
CREATION_DATE  = 
ORIGINATOR     = 

OBJECT_NAME    = STARLINK-36497
OBJECT_ID      = 2026-002U
CENTER_NAME    = EARTH
REF_FRAME      = TEME
TIME_SYSTEM    = UTC
MEAN_ELEMENT_THEORY = SGP/SGP4

EPOCH          = 2026-01-11T14:00:01.999872
MEAN_MOTION    = 15.98710112
ECCENTRICITY   = .0001887
INCLINATION    = 42.9995
RA_OF_ASC_NODE = 297.0553
ARG_OF_PERICENTER = 261.3458
MEAN_ANOMALY   = 310.1462

EPHEMERIS_TYPE = 0
CLASSIFICATION_TYPE = U
NORAD_CAT_ID   = 67323
ELEMENT_SET_NO = 999
REV_AT_EPOCH   = 229
BSTAR          = -.26061176E-2
MEAN_MOTION_DOT = -.1287872E-1
MEAN_MOTION_DDOT = .51345012E-3

CCSDS_OMM_VERS = 2.0
CREATION_DATE  = 
ORIGINATOR     = 

OBJECT_NAME    = STARLINK-36471
OBJECT_ID      = 2026-002V
CENTER_NAME    = EARTH
REF_FRAME      = TEME
TIME_SYSTEM    = UTC
MEAN_ELEMENT_THEORY = SGP/SGP4

EPOCH          = 2026-01-11T14:00:01.999872
MEAN_MOTION    = 15.98926210
ECCENTRICITY   = .00017515
INCLINATION    = 42.9998
RA_OF_ASC_NODE = 297.0443
ARG_OF_PERICENTER = 264.7150
MEAN_ANOMALY   = 311.1919

EPHEMERIS_TYPE = 0
CLASSIFICATION_TYPE = U
NORAD_CAT_ID   = 67324
ELEMENT_SET_NO = 999
REV_AT_EPOCH   = 223
BSTAR          = -.2577891E-2
MEAN_MOTION_DOT = -.1289527E-1
MEAN_MOTION_DDOT = .51583374E-3

CCSDS_OMM_VERS = 2.0
CREATION_DATE  = 
ORIGINATOR     = 

OBJECT_NAME    = STARLINK-36473
OBJECT_ID      = 2026-002W
CENTER_NAME    = EARTH
REF_FRAME      = TEME
TIME_SYSTEM    = UTC
MEAN_ELEMENT_THEORY = SGP/SGP4

EPOCH          = 2026-01-11T14:00:01.999872
MEAN_MOTION    = 15.98832349
ECCENTRICITY   = .00018051
INCLINATION    = 42.9996
RA_OF_ASC_NODE = 297.0495
ARG_OF_PERICENTER = 260.2051
MEAN_ANOMALY   = 313.6954

EPHEMERIS_TYPE = 0
CLASSIFICATION_TYPE = U
NORAD_CAT_ID   = 67325
ELEMENT_SET_NO = 999
REV_AT_EPOCH   = 239
BSTAR          = -.25969541E-2
MEAN_MOTION_DOT = -.1292166E-1
MEAN_MOTION_DDOT = .51725456E-3

CCSDS_OMM_VERS = 2.0
CREATION_DATE  = 
ORIGINATOR     = 

OBJECT_NAME    = STARLINK-36430
OBJECT_ID      = 2026-002X
CENTER_NAME    = EARTH
REF_FRAME      = TEME
TIME_SYSTEM    = UTC
MEAN_ELEMENT_THEORY = SGP/SGP4

EPOCH          = 2026-01-11T14:00:01.999872
MEAN_MOTION    = 15.99140501
ECCENTRICITY   = .00018344
INCLINATION    = 42.9995
RA_OF_ASC_NODE = 297.0341
ARG_OF_PERICENTER = 257.7924
MEAN_ANOMALY   = 322.1954

EPHEMERIS_TYPE = 0
CLASSIFICATION_TYPE = U
NORAD_CAT_ID   = 67326
ELEMENT_SET_NO = 999
REV_AT_EPOCH   = 239
BSTAR          = -.25884291E-2
MEAN_MOTION_DOT = -.1310398E-1
MEAN_MOTION_DDOT = .5324285E-3

CCSDS_OMM_VERS = 2.0
CREATION_DATE  = 
ORIGINATOR     = 

OBJECT_NAME    = STARLINK-36501
OBJECT_ID      = 2026-002Y
CENTER_NAME    = EARTH
REF_FRAME      = TEME
TIME_SYSTEM    = UTC
MEAN_ELEMENT_THEORY = SGP/SGP4

EPOCH          = 2026-01-11T14:00:01.999872
MEAN_MOTION    = 15.99028631
ECCENTRICITY   = .00018741
INCLINATION    = 42.9997
RA_OF_ASC_NODE = 297.0393
ARG_OF_PERICENTER = 260.2697
MEAN_ANOMALY   = 317.5944

EPHEMERIS_TYPE = 0
CLASSIFICATION_TYPE = U
NORAD_CAT_ID   = 67327
ELEMENT_SET_NO = 999
REV_AT_EPOCH   = 223
BSTAR          = -.25877037E-2
MEAN_MOTION_DOT = -.1301856E-1
MEAN_MOTION_DDOT = .5254668E-3

