STARLINK-36461          
1 67316U 26002M   26011.58335648 -.01258121  48893-3 -26308-2 0  9993
2 67316  42.9992 297.0867 0001806 263.6506 295.3924 15.98122743  2392
STARLINK-36450          
1 67317U 26002N   26011.58335648 -.01258726  48974-3 -26211-2 0  9998
2 67317  42.9993 297.0825 0001920 258.1292 302.5798 15.98196906  2398
STARLINK-36498          
1 67318U 26002P   26011.58335648 -.01266467  49615-3 -26123-2 0  9995
2 67318  42.9991 297.0734 0001904 262.9520 301.3142 15.98366942  2293
STARLINK-36470          
1 67319U 26002Q   26011.58335648 -.01261610  49223-3 -26148-2 0  9993
2 67319  42.9993 297.0779 0001892 259.7044 302.7861 15.98280801  2298
STARLINK-36500          
1 67320U 26002R   26011.58335648 -.01274505  50235-3 -26172-2 0  9994
2 67320  42.9994 297.0695 0001817 262.5375 303.4570 15.98448088  2292
STARLINK-36462          
1 67321U 26002S   26011.58335648 -.01289985  51456-3 -26223-2 0  9996
2 67321  42.9993 297.0601 0001895 258.3398 311.3152 15.98630007  2235
STARLINK-36434          
1 67322U 26002T   26011.58335648 -.01274936  50328-3 -26009-2 0  9996
2 67322  42.9994 297.0632 0001845 262.3500 306.0289 15.98564892  2236
STARLINK-36497          
1 67323U 26002U   26011.58335648 -.01287872  51345-3 -26061-2 0  9998
2 67323  42.9995 297.0553 0001887 261.3458 310.1462 15.98710112  2290
STARLINK-36471          
1 67324U 26002V   26011.58335648 -.01289527  51583-3 -25779-2 0  9997
2 67324  42.9998 297.0443 0001751 264.7150 311.1919 15.98926210  2238
STARLINK-36473          
1 67325U 26002W   26011.58335648 -.01292166  51725-3 -25970-2 0  9992
2 67325  42.9996 297.0495 0001805 260.2051 313.6954 15.98832349  2397
STARLINK-36430          
1 67326U 26002X   26011.58335648 -.01310398  53243-3 -25884-2 0  9992
2 67326  42.9995 297.0341 0001834 257.7924 322.1954 15.99140501  2397
STARLINK-36501          
1 67327U 26002Y   26011.58335648 -.01301856  52547-3 -25877-2 0  9990
2 67327  42.9997 297.0393 0001874 260.2697 317.5944 15.99028631  2236
